STARLINK-3302           
1 50842U 22001AR  26068.60980750 -.00000050  00000+0  14976-4 0  9997
2 50842  53.2182 179.4820 0001456  96.2762 263.8396 15.08837644230245
DISKSAT D               
1 67221U 25305C   26068.55257179  .00011599  00000+0  76841-3 0  9999
2 67221  45.0023 251.6339 0003712 319.2749  40.7848 15.07416577 12277
